[{"OBJECT_NAME":"STARLINK-3181","OBJECT_ID":"2022-010F","EPOCH":"2026-03-09T21:39:25.644960","MEAN_MOTION":15.08845307,"ECCENTRICITY":0.00014628,"INCLINATION":53.2173,"RA_OF_ASC_NODE":278.1667,"ARG_OF_PERICENTER":80.3897,"MEAN_ANOMALY":279.7261,"EPHEMERIS_TYPE":0,"CLASSIFICATION_TYPE":"U","NORAD_CAT_ID":51461,"ELEMENT_SET_NO":999,"REV_AT_EPOCH":22685,"BSTAR":0.00014559023,"MEAN_MOTION_DOT":2.03e-5,"MEAN_MOTION_DDOT":0},{"OBJECT_NAME":"SL-19 R\/B","OBJECT_ID":"2006-031B","EPOCH":"2026-03-09T21:44:36.709152","MEAN_MOTION":15.04470441,"ECCENTRICITY":0.01076308,"INCLINATION":98.2744,"RA_OF_ASC_NODE":54.8592,"ARG_OF_PERICENTER":119.9659,"MEAN_ANOMALY":241.2302,"EPHEMERIS_TYPE":0,"CLASSIFICATION_TYPE":"U","NORAD_CAT_ID":29269,"ELEMENT_SET_NO":999,"REV_AT_EPOCH":6907,"BSTAR":0.00022954365,"MEAN_MOTION_DOT":3.574e-5,"MEAN_MOTION_DDOT":0}]
